NORAD_CAT_ID,OBJECT_NAME,OBJECT_TYPE,EPOCH,MEAN_MOTION,ECCENTRICITY,INCLINATION,RA_OF_ASC_NODE,ARG_OF_PERICENTER,MEAN_ANOMALY,BSTAR,MEAN_MOTION_DOT,MEAN_MOTION_DDOT,TLE_LINE0,TLE_LINE1,TLE_LINE2,SEMIMAJOR_AXIS,PERIOD,APOGEE,PERIGEE,DECAYED
54084.0,STARLINK-5183,PAYLOAD,2024-08-13 20:33:06,15.08813206,0.0002075,53.2129,25.815,78.1142,282.0083,-0.00024597,-4.198e-05,0.0,0 STARLINK-5183,1 54084U 22136AK  24226.85632081 -.00004198  00000-0 -24597-3 0  9998,2 54084  53.2129  25.8150 0002075  78.1142 282.0083 15.08813206100988,6917.962,95.439,541.263,538.392,0.0
54084.0,STARLINK-5183,PAYLOAD,2024-08-14 10:51:33,15.08835462,0.0001881,53.2181,23.1382,78.7085,281.4118,-4.972e-05,-1.079e-05,0.0,0 STARLINK-5183,1 54084U 22136AK  24227.45247368 -.00001079  00000-0 -49720-4 0  9996,2 54084  53.2181  23.1382 0001881  78.7085 281.4118 15.08835462101071,6917.894,95.438,541.061,538.458,0.0
54084.0,STARLINK-5183,PAYLOAD,2024-08-14 14:02:20,15.08833992,0.000165,53.2167,22.5446,70.781,289.3361,0.00015088,2.114e-05,0.0,0 STARLINK-5183,1 54084U 22136AK  24227.58495509  .00002114  00000-0  15088-3 0  9990,2 54084  53.2167  22.5446 0001650  70.7810 289.3361 15.08833992100613,6917.899,95.438,540.905,538.622,0.0
54084.0,STARLINK-5183,PAYLOAD,2024-08-14 17:13:06,15.08841515,0.0001608,53.2174,21.9492,70.5439,289.5727,0.00041395,6.306e-05,0.0,0 STARLINK-5183,1 54084U 22136AK  24227.71743489  .00006306  00000-0  41395-3 0  9995,2 54084  53.2174  21.9492 0001608  70.5439 289.5727 15.08841515100633,6917.876,95.437,540.853,538.628,0.0
54084.0,STARLINK-5183,PAYLOAD,2024-08-15 17:03:53,15.08858987,0.0001686,53.2174,17.488,69.7412,290.3761,0.00054339,8.375e-05,0.0,0 STARLINK-5183,1 54084U 22136AK  24228.71103083  .00008375  00000-0  54339-3 0  9996,2 54084  53.2174  17.4880 0001686  69.7412 290.3761 15.08858987101260,6917.822,95.436,540.854,538.521,0.0
54084.0,STARLINK-5183,PAYLOAD,2024-08-16 02:36:11,15.0885153,0.0001563,53.2168,15.7041,67.4678,292.6479,0.00014465,2.016e-05,0.0,0 STARLINK-5183,1 54084U 22136AK  24229.10846855  .00002016  00000-0  14465-3 0  9993,2 54084  53.2168  15.7041 0001563  67.4678 292.6479 15.08851530101321,6917.845,95.437,540.791,538.629,0.0
54084.0,STARLINK-5183,PAYLOAD,2024-08-16 18:30:03,15.08845277,0.0002264,53.2176,12.728,70.0218,290.1018,0.00035184,5.317e-05,0.0,0 STARLINK-5183,1 54084U 22136AK  24229.77087032  .00005317  00000-0  35184-3 0  9998,2 54084  53.2176  12.7280 0002264  70.0218 290.1018 15.08845277101425,6917.864,95.437,541.295,538.163,0.0
54084.0,STARLINK-5183,PAYLOAD,2024-08-17 08:48:31,15.08832172,0.0001959,53.2163,10.054,75.4156,284.7053,-0.00010523,-1.962e-05,0.0,0 STARLINK-5183,1 54084U 22136AK  24230.36703345 -.00001962  00000-0 -10523-3 0  9991,2 54084  53.2163  10.0540 0001959  75.4156 284.7053 15.08832172101519,6917.904,95.438,541.125,538.414,0.0
54084.0,STARLINK-5183,PAYLOAD,2024-08-18 13:25:27,15.08849611,0.0001709,53.217,4.7022,71.6842,288.4336,0.00026737,3.971e-05,0.0,0 STARLINK-5183,1 54084U 22136AK  24231.55934823  .00003971  00000-0  26737-3 0  9994,2 54084  53.2170   4.7022 0001709  71.6842 288.4336 15.08849611101695,6917.851,95.437,540.898,538.534,0.0
54084.0,STARLINK-5183,PAYLOAD,2024-08-18 16:36:13,15.08860869,0.0001103,53.2176,4.1042,108.8535,251.2577,0.00064904,0.00010062,0.0,0 STARLINK-5183,1 54084U 22136AK  24231.69182382  .00010062  00000-0  64904-3 0  9991,2 54084  53.2176   4.1042 0001103 108.8535 251.2577 15.08860869101230,6917.817,95.436,540.445,538.919,0.0
54084.0,STARLINK-5183,PAYLOAD,2024-08-19 08:30:05,15.08840599,0.0001237,53.2183,1.1311,111.1439,248.9686,1.262e-05,-8.7e-07,0.0,0 STARLINK-5183,1 54084U 22136AK  24232.35422916 -.00000087  00000-0  12620-4 0  9991,2 54084  53.2183   1.1311 0001237 111.1439 248.9686 15.08840599101818,6917.879,95.438,540.599,538.888,0.0
54084.0,STARLINK-5183,PAYLOAD,2024-08-20 13:07:01,15.08851688,0.0001481,53.2182,355.7795,117.1177,242.9966,9.328e-05,1.197e-05,0.0,0 STARLINK-5183,1 54084U 22136AK  24233.54654527  .00001197  00000-0  93280-4 0  9991,2 54084  53.2182 355.7795 0001481 117.1177 242.9966 15.08851688101992,6917.845,95.437,540.734,538.685,0.0
54084.0,STARLINK-5183,PAYLOAD,2024-08-20 14:42:24,15.08854537,0.0001295,53.2178,355.4816,87.1765,272.9376,8.3988e-05,1.05e-05,0.0,0 STARLINK-5183,1 54084U 22136AK  24233.61278316  .00001050  00000-0  83988-4 0  9999,2 54084  53.2178 355.4816 0001295  87.1765 272.9376 15.08854537101523,6917.836,95.437,540.597,538.805,0.0
54084.0,STARLINK-5183,PAYLOAD,2024-08-21 12:57:49,15.08832937,0.0001456,53.2187,351.321,82.7416,277.3742,8.8688e-05,1.124e-05,0.0,0 STARLINK-5183,1 54084U 22136AK  24234.54016000  .00001124  00000-0  88688-4 0  9996,2 54084  53.2187 351.3210 0001456  82.7416 277.3742 15.08832937102144,6917.902,95.438,540.774,538.76,0.0
54084.0,STARLINK-5183,PAYLOAD,2024-08-21 14:33:12,15.08835153,0.000141,53.2177,351.023,76.546,283.5689,0.00012964,1.776e-05,0.0,0 STARLINK-5183,1 54084U 22136AK  24234.60639951  .00001776  00000-0  12964-3 0  9995,2 54084  53.2177 351.0230 0001410  76.5460 283.5689 15.08835153101671,6917.895,95.438,540.736,538.785,0.0
